[{"OBJECT_NAME":"KUIPER-00056","OBJECT_ID":"2025-134S","EPOCH":"2026-03-09T14:44:55.990752","MEAN_MOTION":14.83541877,"ECCENTRICITY":9.82e-5,"INCLINATION":51.9023,"RA_OF_ASC_NODE":223.5207,"ARG_OF_PERICENTER":62.1388,"MEAN_ANOMALY":297.9675,"EPHEMERIS_TYPE":0,"CLASSIFICATION_TYPE":"U","NORAD_CAT_ID":64516,"ELEMENT_SET_NO":999,"REV_AT_EPOCH":4020,"BSTAR":0.00069839,"MEAN_MOTION_DOT":5.582e-5,"MEAN_MOTION_DDOT":0},{"OBJECT_NAME":"ALOS DEB","OBJECT_ID":"2006-002AA","EPOCH":"2026-03-09T20:41:07.302912","MEAN_MOTION":14.84512723,"ECCENTRICITY":0.0002087,"INCLINATION":98.0361,"RA_OF_ASC_NODE":40.5153,"ARG_OF_PERICENTER":103.7674,"MEAN_ANOMALY":256.3772,"EPHEMERIS_TYPE":0,"CLASSIFICATION_TYPE":"U","NORAD_CAT_ID":36571,"ELEMENT_SET_NO":999,"REV_AT_EPOCH":84896,"BSTAR":0.00081631612,"MEAN_MOTION_DOT":6.83e-5,"MEAN_MOTION_DDOT":0}]
